{
    "links": {
        "self": "http://www.neowsapp.com/rest/v1/neo/3547631?api_key=iIulBulltgU6a56xZRHN4H3l9WmuAYTsLGpBGhQ2"
    },
    "id": "3547631",
    "neo_reference_id": "3547631",
    "name": "(2010 SJ15)",
    "designation": "2010 SJ15",
    "nasa_jpl_url": "http://ssd.jpl.nasa.gov/sbdb.cgi?sstr=3547631",
    "absolute_magnitude_h": 22.5,
    "estimated_diameter": {
        "kilometers": {
            "estimated_diameter_min": 0.0840533402,
            "estimated_diameter_max": 0.1879489824
        },
        "meters": {
            "estimated_diameter_min": 84.0533402073,
            "estimated_diameter_max": 187.9489824394
        },
        "miles": {
            "estimated_diameter_min": 0.0522283081,
            "estimated_diameter_max": 0.1167860472
        },
        "feet": {
            "estimated_diameter_min": 275.7655606856,
            "estimated_diameter_max": 616.6305395464
        }
    },
    "is_potentially_hazardous_asteroid": false,
    "close_approach_data": [
        {
            "close_approach_date": "2010-09-12",
            "close_approach_date_full": "2010-Sep-12 01:24",
            "epoch_date_close_approach": 1284254640000,
            "relative_velocity": {
                "kilometers_per_second": "19.8594297884",
                "kilometers_per_hour": "71493.9472382929",
                "miles_per_hour": "44423.5584937048"
            },
            "miss_distance": {
                "astronomical": "0.3238996793",
                "lunar": "125.9969752477",
                "kilometers": "48454702.116963091",
                "miles": "30108355.7524730158"
            },
            "orbiting_body": "Earth"
        }
    ],
    "orbital_data": {
        "orbit_id": "13",
        "orbit_determination_date": "2017-04-06 08:56:33",
        "first_observation_date": "2010-09-29",
        "last_observation_date": "2010-10-09",
        "data_arc_in_days": 10,
        "observations_used": 39,
        "orbit_uncertainty": "9",
        "minimum_orbit_intersection": ".0992996",
        "jupiter_tisserand_invariant": "4.212",
        "epoch_osculation": "2455471.5",
        "eccentricity": ".5277712373310183",
        "semi_major_axis": "1.497213631800424",
        "inclination": "36.06774832884832",
        "ascending_node_longitude": "5.922989191551401",
        "orbital_period": "669.1509298530348",
        "perihelion_distance": ".7070273407962464",
        "perihelion_argument": "244.2603496613704",
        "aphelion_distance": "2.287399922804601",
        "perihelion_time": "2455370.660795574950",
        "mean_anomaly": "54.25100971015764",
        "mean_motion": ".5379952174303435",
        "equinox": "J2000",
        "orbit_class": {
            "orbit_class_type": "APO",
            "orbit_class_description": "Near-Earth asteroid orbits which cross the Earth’s orbit similar to that of 1862 Apollo",
            "orbit_class_range": "a (semi-major axis) > 1.0 AU; q (perihelion) < 1.017 AU"
        }
    },
    "is_sentry_object": false
}